#aV2016  5 25  0  0  0.00000000     288 DD+AD WGS84 FIT  NGA
## 1898 259200.00000000   300.00000000 57533 0.0000000000000
+   31     1  2  3  5  6  7  8  9 10 11 12 13 14 15 16 17 18
+         19 20 21 22 23 24 25 26 27 28 29 30 31 32  0  0  0
+          0  0  0  0  0  0  0  0  0  0  0  0  0  0  0  0  0
+          0  0  0  0  0  0  0  0  0  0  0  0  0  0  0  0  0
+          0  0  0  0  0  0  0  0  0  0  0  0  0  0  0  0  0
++         2  2  2  2  2  2  2  2  2  2  2  2  2  2  2  2  2
++         2  2  2  2  2  2  2  2  2  2  2  2  2  2  0  0  0
++         0  0  0  0  0  0  0  0  0  0  0  0  0  0  0  0  0
++         0  0  0  0  0  0  0  0  0  0  0  0  0  0  0  0  0
++         0  0  0  0  0  0  0  0  0  0  0  0  0  0  0  0  0
%c cc cc ccc ccc cccc cccc cccc cccc ccccc ccccc ccccc ccccc
%c cc cc ccc ccc cccc cccc cccc cccc ccccc ccccc ccccc ccccc
%f  0.0000000  0.000000000  0.00000000000  0.000000000000000
%f  0.0000000  0.000000000  0.00000000000  0.000000000000000
%i    0    0    0    0      0      0      0      0         0
%i    0    0    0    0      0      0      0      0         0
/*      NGA, ST. LOUIS,MO.                                  
/*   EPHEMERIS COMPUTED FROM 2 DAYS OF DATA                 
/*   EPOCHA v2.4 SMOOTHER                                   
/*   G1762 IERS2010 SATAF SATAPC                            
*  2016  5 25  1 55  0.00000000
P  1  21730.199883  14366.860281  -5867.081389     21.449354                    
V  1  -7639.580118   -834.391824 -30516.836408      0.012039                    
P  2  -4096.530037 -17423.176889  20178.689135    589.822297                    
V  2  23211.114135   8251.604231  11711.222886     -0.023201                    
P  3  13286.344709  16007.549907  16517.868284    -60.969865                    
V  3    264.927539  21050.335698 -20624.798302     -0.036440                    
P  5  -3187.771564 -26258.395455   -262.971566   -118.185024                    
V  5   3412.032385   -649.366768  31549.109133      0.030163                    
P  6  12574.272862 -10351.538760  20995.445164    195.058319                    
V  6  24013.402033  11500.859009  -8713.818155      0.054602                    
P  7  24597.423833   4547.198987  -9376.236639    452.621696                    
V  7   9899.915067   7046.600641  28566.358510     -0.022869                    
P  8   6207.012070  14063.732597 -21605.908921    -36.400261                    
V  8 -22430.612442  15998.143311   3996.436968     -0.014645                    
P  9  22186.538985  -3963.922665  14050.884564    135.550490                    
V  9 -13064.108608  12407.960000  24086.193643      0.073150                    
P 10 -11495.390679  15062.311333 -18565.348552    -30.192970                    
V 10  -4022.865569 -23350.697685 -16500.308168     -0.087835                    
P 11  19129.008362  12362.806162 -14248.524753   -648.123764                    
V 11 -17513.934374   2470.619115 -22208.544561     -0.014033                    
P 12 -10518.081593 -19613.207789  14528.109501    380.731853                    
V 12    397.617247 -18582.114508 -24363.073972      0.011634                    
P 13   3154.159436 -17410.105560 -19963.921790    -20.135179                    
V 13  22271.698603 -11421.615895  13480.258811     -0.025897                    
P 14 -19748.805617  16764.443509   5738.744502    -15.670710                    
V 14  -7369.971327   1340.951836 -30815.619968     -0.020632                    
P 15 -10331.268105 -12107.478136 -21388.187001   -312.354183                    
V 15  20965.112377 -16994.167896   -161.111550     -0.016625                    
P 16    642.237111  26335.609733    259.312241    -15.336061                    
V 16  -2208.806248   -391.550782  32663.651085      0.025540                    
P 17  21731.184338 -15076.034015   1032.049999   -203.852384                    
V 17   2116.969386   1558.074602 -32193.451452     -0.002188                    
P 18 -15637.368712   1750.397300 -20857.627474    519.211763                    
V 18  -3810.032199 -27641.517645    268.418724      0.040942                    
P 19  17198.367865 -17842.300491   9808.431047   -525.662072                    
V 19  11900.160078  -4757.754131 -28447.797074      0.000469                    
P 20 -13653.378492 -18615.670073 -13246.174755    414.290145                    
V 20    -92.510046 -16963.143114  24250.537217      0.023404                    
P 21 -23928.860999  -1201.923015 -10965.153107   -523.757713                    
V 21 -12683.776100  -8625.764605  26561.489121     -0.012258                    
P 22  10174.456027  22727.986327   9301.799855    335.150464                    
V 22  -2079.490240  11974.690618 -27827.515975     -0.082902                    
P 23  17298.678575   5097.164726  19827.243160   -175.234041                    
V 23 -19346.092159  15359.925351  12615.463402     -0.016345                    
P 24 -19829.508265 -15367.250099  -9073.109198    -17.578949                    
V 24  11561.773584   1906.295616 -28489.030894     -0.005269                    
P 25 -14760.224126  -7451.017608  20706.169091   -177.629767                    
V 25  -1973.486724 -26415.111904 -10658.085124     -0.070495                    
P 26  -4846.448752  23835.486932  10607.247339   -374.895905                    
V 26  -3974.841331 -13140.232121  27740.411027     -0.120379                    
P 27  -5127.986308  18880.151226 -17915.929730     96.099518                    
V 27 -19251.323953  12161.460267  18524.134088      0.040994                    
P 28  12151.235647 -13117.367934 -18998.550863    525.364341                    
V 28   1782.245283  25385.595259 -15913.296238      0.026742                    
P 29 -20829.900257    184.475706  16457.255088    657.104602                    
V 29  16727.612461 -12565.580349  21365.213381     -0.001254                    
P 30  20064.724522  -3171.164571 -17171.293996    127.919870                    
V 30  18368.196127  11834.104202  19188.824242      0.029838                    
P 31 -10008.963060  11683.832724  21787.543585    267.320306                    
V 31 -24497.769637 -12158.564812  -4401.970139     -0.018698                    
P 32 -20424.845211  16829.178077   2167.915550    -11.593861                    
V 32  -3893.743410   -674.633480 -31588.599223     -0.065762                    
EOF
